[{"OBJECT_NAME":"SHIYAN-4 (SY-4)","OBJECT_ID":"2011-068B","EPOCH":"2026-03-09T23:00:28.675872","MEAN_MOTION":14.31088676,"ECCENTRICITY":0.00240064,"INCLINATION":98.7036,"RA_OF_ASC_NODE":87.8563,"ARG_OF_PERICENTER":77.8488,"MEAN_ANOMALY":342.0096,"EPHEMERIS_TYPE":0,"CLASSIFICATION_TYPE":"U","NORAD_CAT_ID":37931,"ELEMENT_SET_NO":999,"REV_AT_EPOCH":74470,"BSTAR":0.00010117128,"MEAN_MOTION_DOT":2.23e-6,"MEAN_MOTION_DDOT":0},{"OBJECT_NAME":"PEGASUS R\/B","OBJECT_ID":"1997-047B","EPOCH":"2026-03-09T23:44:40.984800","MEAN_MOTION":14.26538257,"ECCENTRICITY":0.00193737,"INCLINATION":69.9698,"RA_OF_ASC_NODE":274.9095,"ARG_OF_PERICENTER":24.0327,"MEAN_ANOMALY":85.1942,"EPHEMERIS_TYPE":0,"CLASSIFICATION_TYPE":"U","NORAD_CAT_ID":24921,"ELEMENT_SET_NO":999,"REV_AT_EPOCH":48413,"BSTAR":7.8934219e-5,"MEAN_MOTION_DOT":1.33e-6,"MEAN_MOTION_DDOT":0}]
